{"type": "FeatureCollection", "features": [ {"type": "Feature", "properties": {"norad_id": 39574, "name": "GPM-CORE", "group": "resource", "lat": -42.610930615948185, "lon": 84.40550685312697, "alt_km": 430.82066519480304, "timestamp": "2025-12-04T21:36:15.531347+00:00", "meta": {"OBJECT_NAME": "GPM-CORE", "OBJECT_ID": "2014-009C", "EPOCH": "2025-12-04T14:24:21.541248", "MEAN_MOTION": 15.45241525, "ECCENTRICITY": 0.0010525, "INCLINATION": 64.9752, "RA_OF_ASC_NODE": 239.9589, "ARG_OF_PERICENTER": 268.8894, "MEAN_ANOMALY": 91.1041, "EPHEMERIS_TYPE": 0, "CLASSIFICATION_TYPE": "U", "NORAD_CAT_ID": 39574, "ELEMENT_SET_NO": 999, "REV_AT_EPOCH": 66775, "BSTAR": 0.00061852852, "MEAN_MOTION_DOT": 0.00029502, "MEAN_MOTION_DDOT": 0}, "tle": {"line1": "1 39574U 14009C   25338.60024932  .00029502  00000+0  61853-3 0  9992", "line2": "2 39574  64.9752 239.9589 0010525 268.8894  91.1041 15.45241525667757"}}, "geometry": {"type": "Point", "coordinates": [84.40550685312697, -42.610930615948185]}}, {"type": "Feature", "properties": {"norad_id": 39634, "name": "SENTINEL-1A", "group": "resource", "lat": 6.036520890134501, "lon": -16.614227253759434, "alt_km": 697.8029617105394, "timestamp": "2025-12-04T21:36:15.531357+00:00", "meta": {"OBJECT_NAME": "SENTINEL-1A", "OBJECT_ID": "2014-016A", "EPOCH": "2025-12-04T14:59:36.952800", "MEAN_MOTION": 14.59201436, "ECCENTRICITY": 0.00012463, "INCLINATION": 98.1805, "RA_OF_ASC_NODE": 343.986, "ARG_OF_PERICENTER": 89.6595, "MEAN_ANOMALY": 270.4747, "EPHEMERIS_TYPE": 0, "CLASSIFICATION_TYPE": "U", "NORAD_CAT_ID": 39634, "ELEMENT_SET_NO": 999, "REV_AT_EPOCH": 62164, "BSTAR": 3.594146e-05, "MEAN_MOTION_DOT": 1.24e-06, "MEAN_MOTION_DDOT": 0}, "tle": {"line1": "1 39634U 14016A   25338.62473325  .00000124  00000+0  35941-4 0  9992", "line2": "2 39634  98.1805 343.9860 0001246  89.6595 270.4747 14.59201436621641"}}, "geometry": {"type": "Point", "coordinates": [-16.614227253759434, 6.036520890134501]}}, {"type": "Feature", "properties": {"norad_id": 39731, "name": "KAZEOSAT 1", "group": "resource", "lat": 73.94406508561057, "lon": -98.35523410492254, "alt_km": 743.8795603915178, "timestamp": "2025-12-04T21:36:15.531367+00:00", "meta": {"OBJECT_NAME": "KAZEOSAT 1", "OBJECT_ID": "2014-024A", "EPOCH": "2025-12-04T16:07:45.435360", "MEAN_MOTION": 14.42055466, "ECCENTRICITY": 0.00010614, "INCLINATION": 98.3443, "RA_OF_ASC_NODE": 50.7602, "ARG_OF_PERICENTER": 99.2999, "MEAN_ANOMALY": 260.8311, "EPHEMERIS_TYPE": 0, "CLASSIFICATION_TYPE": "U", "NORAD_CAT_ID": 39731, "ELEMENT_SET_NO": 999, "REV_AT_EPOCH": 61052, "BSTAR": 0.0001678138, "MEAN_MOTION_DOT": 5.08e-06, "MEAN_MOTION_DDOT": 0}, "tle": {"line1": "1 39731U 14024A   25338.67205365  .00000508  00000+0  16781-3 0  9997", "line2": "2 39731  98.3443  50.7602 0001061  99.2999 260.8311 14.42055466610523"}}, "geometry": {"type": "Point", "coordinates": [-98.35523410492254, 73.94406508561057]}}, {"type": "Feature", "properties": {"norad_id": 39766, "name": "ALOS-2", "group": "resource", "lat": 13.766091879268547, "lon": 71.90283116521564, "alt_km": 632.128594631914, "timestamp": "2025-12-04T21:36:15.531377+00:00", "meta": {"OBJECT_NAME": "ALOS-2", "OBJECT_ID": "2014-029A", "EPOCH": "2025-12-04T11:48:08.897760", "MEAN_MOTION": 14.79460682, "ECCENTRICITY": 0.00015125, "INCLINATION": 97.9237, "RA_OF_ASC_NODE": 73.4557, "ARG_OF_PERICENTER": 108.1416, "MEAN_ANOMALY": 251.9961, "EPHEMERIS_TYPE": 0, "CLASSIFICATION_TYPE": "U", "NORAD_CAT_ID": 39766, "ELEMENT_SET_NO": 999, "REV_AT_EPOCH": 62279, "BSTAR": 0.0006509315, "MEAN_MOTION_DOT": 4.812e-05, "MEAN_MOTION_DDOT": 0}, "tle": {"line1": "1 39766U 14029A   25338.49176965  .00004812  00000+0  65093-3 0  9995", "line2": "2 39766  97.9237  73.4557 0001512 108.1416 251.9961 14.79460682622797"}}, "geometry": {"type": "Point", "coordinates": [71.90283116521564, 13.766091879268547]}}, {"type": "Feature", "properties": {"norad_id": 40010, "name": "KAZEOSAT 2", "group": "resource", "lat": 55.422961338436316, "lon": 14.715052902248795, "alt_km": 609.7944875380399, "timestamp": "2025-12-04T21:36:15.531388+00:00", "meta": {"OBJECT_NAME": "KAZEOSAT 2", "OBJECT_ID": "2014-033A", "EPOCH": "2025-12-04T14:34:48.811296", "MEAN_MOTION": 14.85147608, "ECCENTRICITY": 0.00072878, "INCLINATION": 97.5511, "RA_OF_ASC_NODE": 183.3417, "ARG_OF_PERICENTER": 237.0112, "MEAN_ANOMALY": 123.0404, "EPHEMERIS_TYPE": 0, "CLASSIFICATION_TYPE": "U", "NORAD_CAT_ID": 40010, "ELEMENT_SET_NO": 999, "REV_AT_EPOCH": 62007, "BSTAR": 0.0001770878, "MEAN_MOTION_DOT": 1.466e-05, "MEAN_MOTION_DDOT": 0}, "tle": {"line1": "1 40010U 14033A   25338.60750939  .00001466  00000+0  17709-3 0  9999", "line2": "2 40010  97.5511 183.3417 0007287 237.0112 123.0404 14.85147608620075"}}, "geometry": {"type": "Point", "coordinates": [14.715052902248795, 55.422961338436316]}}, {"type": "Feature", "properties": {"norad_id": 40011, "name": "HODOYOSHI-4", "group": "resource", "lat": 33.07342372645226, "lon": -6.880536392902406, "alt_km": 601.4420381852424, "timestamp": "2025-12-04T21:36:15.531398+00:00", "meta": {"OBJECT_NAME": "HODOYOSHI-4", "OBJECT_ID": "2014-033B", "EPOCH": "2025-12-04T16:06:08.128224", "MEAN_MOTION": 14.87434863, "ECCENTRICITY": 0.00227293, "INCLINATION": 97.5412, "RA_OF_ASC_NODE": 167.9525, "ARG_OF_PERICENTER": 228.2301, "MEAN_ANOMALY": 131.6974, "EPHEMERIS_TYPE": 0, "CLASSIFICATION_TYPE": "U", "NORAD_CAT_ID": 40011, "ELEMENT_SET_NO": 999, "REV_AT_EPOCH": 61988, "BSTAR": 0.00046633551, "MEAN_MOTION_DOT": 4.189e-05, "MEAN_MOTION_DDOT": 0}, "tle": {"line1": "1 40011U 14033B   25338.67092741  .00004189  00000+0  46634-3 0  9991", "line2": "2 40011  97.5412 167.9525 0022729 228.2301 131.6974 14.87434863619882"}}, "geometry": {"type": "Point", "coordinates": [-6.880536392902406, 33.07342372645226]}}, {"type": "Feature", "properties": {"norad_id": 40013, "name": "DEIMOS-2", "group": "resource", "lat": 30.28789108161709, "lon": 39.43519855768821, "alt_km": 586.9856100120551, "timestamp": "2025-12-04T21:36:15.531409+00:00", "meta": {"OBJECT_NAME": "DEIMOS-2", "OBJECT_ID": "2014-033D", "EPOCH": "2025-12-04T16:06:43.174656", "MEAN_MOTION": 14.92915805, "ECCENTRICITY": 9.021e-05, "INCLINATION": 97.6071, "RA_OF_ASC_NODE": 214.737, "ARG_OF_PERICENTER": 91.5432, "MEAN_ANOMALY": 268.5891, "EPHEMERIS_TYPE": 0, "CLASSIFICATION_TYPE": "U", "NORAD_CAT_ID": 40013, "ELEMENT_SET_NO": 999, "REV_AT_EPOCH": 60869, "BSTAR": 0.00053917652, "MEAN_MOTION_DOT": 5.54e-05, "MEAN_MOTION_DDOT": 0}, "tle": {"line1": "1 40013U 14033D   25338.67133304  .00005540  00000+0  53918-3 0  9999", "line2": "2 40013  97.6071 214.7370 0000902  91.5432 268.5891 14.92915805608691"}}, "geometry": {"type": "Point", "coordinates": [39.43519855768821, 30.28789108161709]}}, {"type": "Feature", "properties": {"norad_id": 40015, "name": "HODOYOSHI-3", "group": "resource", "lat": 32.40997876243371, "lon": -30.048794606500014, "alt_km": 626.009052633669, "timestamp": "2025-12-04T21:36:15.531420+00:00", "meta": {"OBJECT_NAME": "HODOYOSHI-3", "OBJECT_ID": "2014-033F", "EPOCH": "2025-12-04T11:14:10.478112", "MEAN_MOTION": 14.84762623, "ECCENTRICITY": 0.00318293, "INCLINATION": 97.6193, "RA_OF_ASC_NODE": 144.6631, "ARG_OF_PERICENTER": 276.2794, "MEAN_ANOMALY": 83.4796, "EPHEMERIS_TYPE": 0, "CLASSIFICATION_TYPE": "U", "NORAD_CAT_ID": 40015, "ELEMENT_SET_NO": 999, "REV_AT_EPOCH": 61872, "BSTAR": 0.00045866401, "MEAN_MOTION_DOT": 3.872e-05, "MEAN_MOTION_DDOT": 0}, "tle": {"line1": "1 40015U 14033F   25338.46817683  .00003872  00000+0  45866-3 0  9996", "line2": "2 40015  97.6193 144.6631 0031829 276.2794  83.4796 14.84762623618726"}}, "geometry": {"type": "Point", "coordinates": [-30.048794606500014, 32.40997876243371]}}, {"type": "Feature", "properties": {"norad_id": 40053, "name": "SPOT 7", "group": "resource", "lat": -7.999064170314679, "lon": -139.98954697361108, "alt_km": 694.8694973898255, "timestamp": "2025-12-04T21:36:15.531430+00:00", "meta": {"OBJECT_NAME": "SPOT 7", "OBJECT_ID": "2014-034A", "EPOCH": "2025-12-04T15:48:52.747776", "MEAN_MOTION": 14.60718142, "ECCENTRICITY": 0.00015265, "INCLINATION": 98.0917, "RA_OF_ASC_NODE": 40.9203, "ARG_OF_PERICENTER": 96.321, "MEAN_ANOMALY": 263.8164, "EPHEMERIS_TYPE": 0, "CLASSIFICATION_TYPE": "U", "NORAD_CAT_ID": 40053, "ELEMENT_SET_NO": 999, "REV_AT_EPOCH": 60873, "BSTAR": 0.0002477975, "MEAN_MOTION_DOT": 1.162e-05, "MEAN_MOTION_DDOT": 0}, "tle": {"line1": "1 40053U 14034A   25338.65894384  .00001162  00000+0  24780-3 0  9995", "line2": "2 40053  98.0917  40.9203 0001526  96.3210 263.8164 14.60718142608739"}}, "geometry": {"type": "Point", "coordinates": [-139.98954697361108, -7.999064170314679]}}, {"type": "Feature", "properties": {"norad_id": 40072, "name": "SKYSAT-B", "group": "resource", "lat": 80.88350121393641, "lon": 168.5911691191439, "alt_km": 598.3530983790333, "timestamp": "2025-12-04T21:36:15.531440+00:00", "meta": {"OBJECT_NAME": "SKYSAT-B", "OBJECT_ID": "2014-037D", "EPOCH": "2025-12-04T09:52:55.328736", "MEAN_MOTION": 14.8727933, "ECCENTRICITY": 0.00054738, "INCLINATION": 98.3596, "RA_OF_ASC_NODE": 281.6788, "ARG_OF_PERICENTER": 175.6586, "MEAN_ANOMALY": 184.4677, "EPHEMERIS_TYPE": 0, "CLASSIFICATION_TYPE": "U", "NORAD_CAT_ID": 40072, "ELEMENT_SET_NO": 999, "REV_AT_EPOCH": 61700, "BSTAR": 0.00045472668, "MEAN_MOTION_DOT": 4.041e-05, "MEAN_MOTION_DDOT": 0}, "tle": {"line1": "1 40072U 14037D   25338.41175149  .00004041  00000+0  45473-3 0  9995", "line2": "2 40072  98.3596 281.6788 0005473 175.6586 184.4677 14.87279330617007"}}, "geometry": {"type": "Point", "coordinates": [168.5911691191439, 80.88350121393641]}}]}